{"type":"FeatureCollection","features":[{"type":"Feature","geometry":{"type":"MultiPolygon","coordinates":[[[[-122.40217133081705,37.786260131123804],[-122.41717557292577,37.77437701962253],[-122.418505614155,37.773346788088716],[-122.41912733566205,37.77549099238318],[-122.41906140697911,37.7755434173265],[-122.41885431115136,37.77570665467286],[-122.4179298110711,37.77643800955909],[-122.41759179799604,37.77670518566981],[-122.41655639259652,37.777522600559244],[-122.41652756390242,37.777797406392196],[-122.41667827770488,37.77864604451411],[-122.41722373354555,37.78134600602457],[-122.41865826782484,37.78116006787734],[-122.41914951825424,37.783584110839605],[-122.41960519320148,37.78581213460027],[-122.41817037852678,37.78599322760697],[-122.41817092080751,37.78599589755623],[-122.41794938068563,37.78602329574605],[-122.41654346759918,37.78620481822339],[-122.41631092550081,37.7862340031633],[-122.41490636598826,37.78641108664812],[-122.41478889151296,37.7864320277272],[-122.41467506057542,37.78644648536067],[-122.41326255423236,37.78662406775762],[-122.41302585117582,37.78665386448312],[-122.41236112334549,37.786738565991236],[-122.41227394020838,37.78674900816278],[-122.41161274959197,37.7868330837296],[-122.41137740847026,37.7868605979213],[-122.40997427779416,37.78704076423065],[-122.40985472231756,37.78705378078731],[-122.40973821034696,37.787067722747075],[-122.40832313112226,37.78724883985103],[-122.4083093101976,37.787250984294005],[-122.40794242767085,37.78547259955218],[-122.4077395957084,37.78447484711388],[-122.40768318194877,37.78453392307989],[-122.40750141517016,37.78467735650787],[-122.40635020443172,37.785587644489596],[-122.40620964698807,37.785695934131525],[-122.40598564066063,37.78586851440738],[-122.40495366230131,37.78668418536691],[-122.40473963659169,37.78685305966766],[-122.40461322384239,37.78695280338044],[-122.40358352730978,37.787766472741716],[-122.40354369743356,37.787362054065646],[-122.40217133081705,37.786260131123804]]]]},"properties":{"shape_area":"11072154.5623","shape_leng":"12424.2689691","company":"J","_feature_id":"5","shape_le_1":"18796.7841847","district":"TENDERLOIN"}},{"type":"Feature","geometry":{"type":"MultiPolygon","coordinates":[[[[-122.42612039096105,37.806838540010546],[-122.42612415047432,37.80684171464554],[-122.42615166438904,37.80682322738229],[-122.42619190374138,37.80681610724635],[-122.42625642063713,37.806765903893776],[-122.4262811083951,37.806770150467756],[-122.42629246380488,37.80679385901293],[-122.42631631954426,37.80680875821887],[-122.42629458941944,37.8068720488337],[-122.42632412156183,37.806872332495736],[-122.4263781031377,37.80688144605733],[-122.4264178649448,37.80688447626547],[-122.4265665780146,37.806923749312524],[-122.42658463725952,37.806908383471246],[-122.42662150805923,37.806972543840565],[-122.42664034153775,37.806977708143904],[-122.42666543155894,37.807034201399574],[-122.42671320747188,37.80707887508897],[-122.42672610712805,37.80715625522367],[-122.42677483753947,37.807217809005486],[-122.42669933385933,37.80737117383166],[-122.42670816648369,37.80739545388775],[-122.42670818183481,37.807418097718774],[-122.42670768060651,37.80744434893916],[-122.42674773265767,37.807525636421786],[-122.4267865604706,37.80757515538994],[-122.42683283571375,37.80761521567937],[-122.42682539798416,37.807663535174605],[-122.42685802197447,37.8076930595674],[-122.42687788241506,37.80771964534905],[-122.42668257609621,37.80776667405422],[-122.42674104072044,37.80795796424562],[-122.42666987213626,37.80803134948824],[-122.42669016038538,37.80813169876821],[-122.42671979257106,37.808123769546846],[-122.42671025991314,37.80813442679099],[-122.42674233713903,37.80828292574989],[-122.4268160995354,37.80862451086798],[-122.42681235890744,37.808705802088774],[-122.42682992409601,37.80881665913841],[-122.42683443193776,37.80893636717783],[-122.42682781427679,37.808963165171924],[-122.42684966738632,37.8090161880828],[-122.42682461555222,37.80906533542613],[-122.42680925213371,37.809205998441946],[-122.42678186115562,37.80933409332725],[-122.42675377789399,37.809435509634724],[-122.42671143527724,37.80955108396047],[-122.42666449579573,37.809658610438554],[-122.42659494645645,37.8097966773314],[-122.42651217813552,37.80993263934143],[-122.42635497896404,37.810131319652164],[-122.42626247439765,37.81023030676349],[-122.42621960626202,37.81026930107827],[-122.4261708901636,37.81030839088226],[-122.42614962157988,37.81033426762767],[-122.42610376895449,37.81037098987939],[-122.42599028374359,37.810450591976654],[-122.42592124899633,37.81049581563147],[-122.42586790557787,37.81052569747862],[-122.42578994788349,37.810565264594366],[-122.42571199032736,37.81060483165467],[-122.42555851733039,37.81066535880015],[-122.4255178807921,37.810677626550536],[-122.42546271395805,37.81069361272488],[-122.42537565258102,37.810720563570015],[-122.4252752847138,37.810743954287084],[-122.4252340767971,37.81075354642175],[-122.42512911318477,37.81077031117391],[-122.42503246210049,37.81078248042068],[-122.42489990428297,37.81079189098396],[-122.42487482159363,37.810800104708136],[-122.42484864643905,37.81079328499589],[-122.42477909839621,37.810793862540145],[-122.42474881018322,37.81079101202286],[-122.42471713190885,37.81078874164937],[-122.42467906010569,37.810783788266015],[-122.42464662146656,37.8107793005893],[-122.42462403039883,37.810775209500704],[-122.42459718179815,37.8107695154809],[-122.42457384503611,37.81076376432551],[-122.42455049382714,37.81075745575843],[-122.42452361657298,37.810750647431476],[-122.42450307483568,37.810744293011844],[-122.42448392338821,37.81073735843626],[-122.42446266463003,37.810730458418256],[-122.4244299951275,37.81071705497648],[-122.42440759187002,37.81072020767834],[-122.42440151071366,37.81070246813075],[-122.42439156226503,37.81069817089189],[-122.42435501962872,37.8106708939484],[-122.42432148352553,37.81062405694503],[-122.42430428939062,37.81058420020139],[-122.4242987806424,37.81056143428173],[-122.42429818844043,37.81053858797012],[-122.42430454743393,37.8105128409107],[-122.4243130859602,37.810489845801456],[-122.42433608500104,37.810455465415316],[-122.42434915523498,37.81044466028829],[-122.42436566528296,37.81043101187587],[-122.42438504233331,37.810419546550584],[-122.42441075486053,37.81040853514079],[-122.4244448815118,37.81039682914288],[-122.4244729324565,37.810394699037275],[-122.42450171443167,37.810393671930825],[-122.42453481192331,37.81039647666841],[-122.42458015272393,37.81041078824557],[-122.42459579228267,37.81041778011196],[-122.4246129087973,37.81042753503469],[-122.42463292144737,37.81044058749768],[-122.42465821181453,37.8104674905104],[-122.42467351041773,37.81048842443255],[-122.42467959139996,37.81050616397049],[-122.42468425343206,37.81052336919658],[-122.42468613490023,37.810541734556345],[-122.42468648162755,37.810555108108666],[-122.42468682835043,37.81056848148529],[-122.42468992674256,37.81057958008955],[-122.42469874518001,37.810594487618935],[-122.42471245106132,37.81060820063095],[-122.42472814845864,37.81061742122914],[-122.42474377362738,37.810623855844305],[-122.424759297883,37.810626389658594],[-122.4247782904032,37.81062719464489],[-122.42484368189464,37.81062891480256],[-122.42496837682036,37.810621942487664],[-122.4251569710754,37.810598158335736],[-122.4252848376565,37.810570427815215],[-122.42539292035814,37.81054041491818],[-122.42549591346817,37.81050740197706],[-122.42573274013313,37.81040245326657],[-122.42590431667882,37.810294177159875],[-122.42597591409172,37.81023498658336],[-122.42603093000513,37.81021320046424],[-122.42604327581492,37.8101816671159],[-122.42624827190406,37.80996480013714],[-122.42643117295607,37.80968563036119],[-122.42650036128256,37.80953364420343],[-122.42656038601578,37.80936672213213],[-122.42659857043037,37.80920363819384],[-122.42662056367367,37.80905500171384],[-122.42662177741101,37.8089143117908],[-122.42663923533954,37.80879798352458],[-122.42661492282134,37.80881926840093],[-122.42661015859571,37.80872484519623],[-122.4265189043687,37.808152397244505],[-122.4264881752271,37.808164264257286],[-122.42647329500919,37.80805085618654],[-122.42643819341762,37.80789421208443],[-122.42635807279709,37.80765874734609],[-122.42632751957937,37.807585373049584],[-122.42628852154171,37.80754562868265],[-122.42611767303082,37.80764070550142],[-122.4260053484067,37.8075115204132],[-122.42594793041519,37.80754115051215],[-122.42607312387234,37.8076800081902],[-122.42604431751795,37.80769290008211],[-122.42578722932986,37.80740606612452],[-122.42581109876258,37.80739381325548],[-122.42589555344854,37.807479313313266],[-122.42593324522903,37.80745741418705],[-122.4261238563623,37.80734613856164],[-122.4260146584795,37.807256158087846],[-122.42594516779496,37.80720330926088],[-122.42579689525476,37.807101550325754],[-122.42565866002319,37.80701856891425],[-122.42559024906976,37.806981069267266],[-122.42551154588276,37.806940205232976],[-122.4254525691483,37.80691150172561],[-122.4253706823674,37.806873931712005],[-122.42532977273999,37.80685644311114],[-122.4252758318062,37.8068341417572],[-122.42526491101202,37.806829294563656],[-122.42518381352849,37.806798520166524],[-122.42514008663636,37.80678269855803],[-122.42511244994753,37.80677277456178],[-122.42509926535439,37.80676861283862],[-122.42500879850192,37.806738963971604],[-122.4249766942946,37.806728788685895],[-122.42486592347086,37.806697525865474],[-122.42477846970439,37.80667506857192],[-122.42473530872834,37.80666399284272],[-122.42465926641023,37.806646915286464],[-122.42459446684353,37.80663397717953],[-122.42452566551346,37.806624292328856],[-122.42448937688597,37.806619534843435],[-122.42444245969033,37.80661462660154],[-122.42438543122505,37.806609829181326],[-122.42432844336933,37.80660659816829],[-122.42428303987273,37.80660490730129],[-122.42422970053846,37.806604480697196],[-122.42417537773875,37.80660552909366],[-122.42412129274365,37.80660787047509],[-122.42407193460407,37.806611269516054],[-122.42403034169632,37.806614704118914],[-122.42400650476111,37.806617362419814],[-122.42399713083682,37.806618325966696],[-122.42396331575057,37.80662228201647],[-122.42388820240808,37.806634476859585],[-122.42386238363942,37.80663819431886],[-122.42378819421384,37.8066531840416],[-122.42373782469659,37.80666486704521],[-122.42370650455494,37.806672560303966],[-122.42365509750039,37.80669318494752],[-122.42357961644875,37.806722646157915],[-122.4234872094828,37.806760953180635],[-122.42343207325362,37.80678478926433],[-122.42335671277343,37.806818911327674],[-122.42327590263304,37.8068572809788],[-122.4232479831329,37.80687096922549],[-122.42320330325366,37.806893752509694],[-122.42316552110306,37.80691302047903],[-122.42312557180799,37.806934466445796],[-122.42307951808213,37.80695941457962],[-122.42301267026971,37.80699717822518],[-122.42293696152028,37.8070423961426],[-122.42288394547023,37.80707451510035],[-122.42285125056098,37.80709395229714],[-122.42280881936007,37.80711770698724],[-122.42274964132318,37.807157236004194],[-122.42270061111698,37.80718991996775],[-122.42265235814666,37.807221961341796],[-122.42264657805558,37.807225710312025],[-122.42260971033119,37.807249626330055],[-122.42257018573711,37.807275223943236],[-122.42255159783116,37.807287373527046],[-122.42254784935938,37.807289829051506],[-122.42249617822428,37.80732482469811],[-122.42245386725347,37.807353240259715],[-122.42243763507959,37.80736434320225],[-122.42241421984595,37.807380226016534],[-122.4223775499223,37.807405651156564],[-122.4223543030349,37.8074219093638],[-122.42233372604449,37.807436989951555],[-122.42230953326889,37.80745351566668],[-122.42228488341699,37.807470805125426],[-122.42226336682819,37.8074864050383],[-122.42223920337733,37.80750406453285],[-122.42221133365882,37.807523979488515],[-122.42220381843845,37.8075295556945],[-122.42219861258206,37.80753330249047],[-122.42217307230013,37.80755195008944],[-122.4221572665445,37.8075635050601],[-122.42214849527093,37.80756988088661],[-122.42213963596384,37.80757664789949],[-122.4221246095406,37.807587956347774],[-122.42209956407298,37.8076067518018],[-122.422080108871,37.80762148249881],[-122.4220548709521,37.80764043683958],[-122.42203820606133,37.8076529407082],[-122.42197813830215,37.80769965406696],[-122.42192307787784,37.807742545965354],[-122.421865265359,37.80778914445624],[-122.42183159314173,37.807816105421026],[-122.42180697023691,37.80783606247757],[-122.42177418127214,37.80786300903251],[-122.42175341835714,37.8078803322564],[-122.42173371704257,37.80789693690558],[-122.4217260274639,37.80790337295372],[-122.42171977607227,37.80790846125326],[-122.42170362607327,37.807921891595406],[-122.42170189756098,37.80792340000978],[-122.42166950301203,37.80795041798744],[-122.42165105346585,37.80796606731278],[-122.42163808021853,37.80797703054587],[-122.42161952649002,37.80799244774734],[-122.42160723200949,37.808003088397015],[-122.4216030036929,37.808006663301924],[-122.42157628184644,37.80802899196458],[-122.4215601356038,37.80804257798485],[-122.42155475560874,37.808047184445314],[-122.42155014063681,37.80805099946432],[-122.4215376044844,37.80806148107551],[-122.4215315001667,37.80807136230944],[-122.42137136114289,37.80823172141752],[-122.42130077849971,37.808302275113604],[-122.42128069906944,37.80832418415121],[-122.42126708999888,37.8083390008977],[-122.42124538620692,37.80836241154151],[-122.42123596820414,37.808372812437185],[-122.42121968867302,37.808390312165145],[-122.42119856175341,37.80841332505659],[-122.42118371119983,37.80842932652582],[-122.42116296715686,37.80845202270791],[-122.42113584279534,37.808481499233615],[-122.42112117998103,37.80849718717061],[-122.4211018628887,37.80851830741774],[-122.42108054612413,37.808541556315696],[-122.42106074196798,37.80856276219334],[-122.4210527916706,37.808550470429346],[-122.42110206418238,37.8088034195218],[-122.42149504663041,37.809133410864995],[-122.42144841012426,37.80916343160446],[-122.42288617554838,37.81021900044003],[-122.42284353087067,37.81025565292515],[-122.42136643661073,37.8091612069005],[-122.42121089412205,37.80918983408185],[-122.42103598082105,37.80895725501855],[-122.42094401134553,37.8089675815781],[-122.42091092399491,37.808797435075],[-122.42085770465815,37.808795358936365],[-122.4207177535805,37.8088987174219],[-122.42075908169213,37.8090861625976],[-122.42069268312852,37.809083297539644],[-122.42068120788578,37.8090242862265],[-122.4205749974432,37.80902075374038],[-122.42042082447747,37.809021948709244],[-122.42035902408671,37.80900453783896],[-122.42038536322009,37.808933071252255],[-122.42066811775412,37.80895621349999],[-122.4206404131073,37.808788499564464],[-122.42063488455383,37.80875641439161],[-122.42054097860901,37.808768341731955],[-122.420461934424,37.80830328476588],[-122.41922389660836,37.80845266916082],[-122.41928374415764,37.80873346730602],[-122.41790210775996,37.80863833612617],[-122.41792234853877,37.808822484778425],[-122.41800998103803,37.80884049207462],[-122.4188944983858,37.808835820624516],[-122.41889400427647,37.808760956207784],[-122.4189313895857,37.80875806164192],[-122.41893540029352,37.8088808899036],[-122.4199479967378,37.80890269258728],[-122.41993935716887,37.80912573604791],[-122.41908335574881,37.809091086315576],[-122.41907615022949,37.80915738069677],[-122.41888581626073,37.809083889467765],[-122.418358747699,37.80906918085666],[-122.4183143615828,37.809144652892854],[-122.41896958838069,37.809396844253236],[-122.41893232081824,37.80944891790388],[-122.41789744938976,37.80902950492421],[-122.41742939618489,37.80892807635255],[-122.41741492530882,37.80916439044885],[-122.41929092097577,37.810403979844224],[-122.41931379117499,37.81038127543705],[-122.41983271201964,37.810733866767684],[-122.41980974565573,37.81075285077115],[-122.42059874166357,37.81126853373983],[-122.42035323044097,37.81151074132835],[-122.42001114911255,37.811284303940724],[-122.4199954854493,37.81128331829712],[-122.4198478178906,37.811317979696106],[-122.41994961831942,37.81156569854251],[-122.41991388973015,37.811574964908765],[-122.41972449368691,37.81113381752474],[-122.41921601636939,37.81089402525372],[-122.41918718188354,37.81092799289295],[-122.4190930073948,37.81091463699609],[-122.41898615942165,37.81083449087963],[-122.41893426204868,37.8108837216165],[-122.41912399754511,37.81102455310318],[-122.41905229196828,37.811093956992345],[-122.41946637955833,37.81138374053692],[-122.41935023953538,37.81148860662536],[-122.41884631948774,37.81147447377287],[-122.41734904039387,37.81047898783933],[-122.41535087059492,37.80916035808676],[-122.41519993342946,37.809155324631206],[-122.41504031966936,37.809185251785664],[-122.41488847634385,37.809239825607285],[-122.4147801127771,37.809282527319354],[-122.4147746002164,37.80937194551628],[-122.41534118662835,37.80975479915805],[-122.41528702507988,37.809837563459844],[-122.41456531221824,37.80956392572151],[-122.41402187630362,37.80947225145508],[-122.41354160026911,37.80928277735287],[-122.41342461800038,37.8092338075301],[-122.41337208169499,37.809319025824294],[-122.41351892669151,37.809434507662665],[-122.41363638907033,37.809502079578444],[-122.4139769930032,37.80974115644761],[-122.41428432184475,37.809946892894644],[-122.4140296997265,37.81013960805167],[-122.41378130494137,37.80990666982718],[-122.41385955482885,37.809848329011274],[-122.41251871621712,37.80903942497596],[-122.41199786354423,37.80933262714219],[-122.41189141257577,37.80938894243748],[-122.41286678540303,37.81052191856451],[-122.41271752575291,37.81060122678479],[-122.41270882275214,37.81058534733484],[-122.41151109706426,37.81124224178965],[-122.41148813161003,37.811222423752305],[-122.41268789466245,37.81056211389521],[-122.41145407837449,37.80910571310855],[-122.41142469821068,37.809118596084595],[-122.4112523348715,37.80892288134558],[-122.41109531996112,37.80889813080636],[-122.4110878234304,37.80891065909749],[-122.41128124147404,37.809134568395585],[-122.41125664648801,37.809151095670494],[-122.41103409708347,37.808889090216134],[-122.41102357581906,37.8089054968157],[-122.41095441510762,37.80889172917366],[-122.41095565895185,37.808879302377726],[-122.41073448244406,37.80884517049575],[-122.41073187679326,37.8088730026587],[-122.4106486800424,37.80886070303801],[-122.41065273111512,37.808835823951135],[-122.4104878372063,37.80880871881608],[-122.41040231710306,37.80931381823973],[-122.41063006158078,37.809717070233816],[-122.41090534265165,37.810205158343614],[-122.41132619879303,37.81094150312387],[-122.4112447262822,37.81111775835794],[-122.41095027737268,37.81122178341067],[-122.41092839419593,37.81128293104537],[-122.41068195581224,37.81136880803369],[-122.41061435621482,37.811355015048484],[-122.41048706919509,37.81139181593664],[-122.41021300259214,37.81137640406622],[-122.41000621455596,37.81099762542164],[-122.41001552948273,37.81093420006761],[-122.4100369031681,37.81091400317748],[-122.4100593292315,37.81081314540783],[-122.41018019838475,37.810101522216456],[-122.41005894113407,37.80988636793345],[-122.40978054065218,37.80939832843989],[-122.40964595140804,37.80909033913177],[-122.40954964350198,37.808993885111754],[-122.4093877171017,37.808717354892885],[-122.40869241774325,37.80849660338187],[-122.40831714413936,37.808376127212156],[-122.40832598076949,37.80835489266808],[-122.40830588454038,37.808303109503825],[-122.40823012203025,37.80827579983469],[-122.408191426613,37.808291314154346],[-122.40810232530059,37.80847513478323],[-122.40806924494787,37.80846574459363],[-122.40816874605014,37.80826066416789],[-122.40816051617183,37.80824466862316],[-122.40812404496948,37.80823052532647],[-122.40804363470967,37.80819941396849],[-122.40802500489242,37.80820467805271],[-122.40791813393382,37.808427246901374],[-122.4078882434871,37.80842028649079],[-122.40799961244723,37.80819020078047],[-122.40799291379032,37.80817293964856],[-122.40792825269749,37.80815165351043],[-122.40791421643193,37.808153121381146],[-122.40780795074176,37.80839925315377],[-122.40778747097572,37.80839338111773],[-122.4078701293052,37.8082022208392],[-122.40766194700426,37.808255215246945],[-122.40770417964498,37.80837735890484],[-122.40761399697367,37.8083974277244],[-122.40750495696084,37.808118689802384],[-122.4075470145725,37.80810323067656],[-122.4075368075443,37.8080711381971],[-122.40746495672931,37.80804476104121],[-122.40744445825197,37.808006876046385],[-122.40748628170229,37.807930518481335],[-122.40743237134542,37.80790161425291],[-122.40735791207611,37.80804673662005],[-122.40664530345231,37.80782129028093],[-122.40681840635332,37.80999463381443],[-122.40678149602897,37.810018803356556],[-122.40618070192888,37.81006821638321],[-122.40615515021445,37.810047537975265],[-122.40612998061873,37.810041741267845],[-122.40611865641588,37.810027036226394],[-122.40611671121641,37.81001217960622],[-122.40590579753216,37.807157075859784],[-122.40532134645443,37.80686751687311],[-122.404401220454,37.808853808363835],[-122.40438743871023,37.80886519707165],[-122.40436730879871,37.80887296604731],[-122.40434376665786,37.80886962411826],[-122.404314294215,37.80881799171565],[-122.40394067997084,37.808761990001635],[-122.40392016838526,37.80875487718423],[-122.40390555965614,37.80873402147165],[-122.40390814510936,37.80871288836926],[-122.4047187871637,37.80696905969935],[-122.40395973183611,37.8065780972407],[-122.40276738625514,37.80801170772064],[-122.4027457887144,37.80802322233245],[-122.40271771623911,37.808026156483955],[-122.40269398351657,37.8080153733673],[-122.4023548385614,37.80783970602949],[-122.40234023023054,37.80781885012305],[-122.40234106237861,37.807790301224905],[-122.40235302718887,37.807769016871056],[-122.40342063882531,37.80647141647757],[-122.40280489779414,37.80602498057183],[-122.40095154653889,37.80763280822347],[-122.40092994882687,37.807644322503634],[-122.40090312215045,37.80763482952693],[-122.40039943574669,37.807262060138044],[-122.40096305912583,37.80356321499942],[-122.4008423721166,37.80342992697768],[-122.40047742030961,37.803466825497445],[-122.3985780986952,37.804587969257824],[-122.39854668814397,37.80460841671741],[-122.39850961050735,37.80460023779897],[-122.3985592561251,37.80452375754561],[-122.39824375023859,37.804293108621216],[-122.39822783444957,37.80428219863145],[-122.39822104329659,37.804261216582944],[-122.39823169918365,37.8042498789005],[-122.39997406598378,37.8032280420016],[-122.39960369013863,37.80280845746819],[-122.39782327645253,37.80380980996833],[-122.39780617849904,37.80381380717082],[-122.39778729523142,37.80380914836195],[-122.3975182197772,37.80349834728071],[-122.39750827105999,37.80347617519493],[-122.39752348925884,37.80345980166095],[-122.39950585860923,37.802346021559565],[-122.39962786009981,37.80227197765926],[-122.39972351950368,37.80217502443526],[-122.39953356607472,37.80196220711968],[-122.39940956780433,37.80182152689402],[-122.39923999613829,37.8018552746936],[-122.39914554250117,37.80189153479777],[-122.39712442151229,37.80301833905629],[-122.39709019376234,37.80302509314762],[-122.39706295729839,37.8029994770659],[-122.39614668483392,37.801959641219646],[-122.39614464682326,37.80194106388469],[-122.39615670725945,37.801923500492066],[-122.39838678140262,37.80067210116998],[-122.39799197339671,37.80023176689762],[-122.3957636861267,37.80147325163572],[-122.39574186796517,37.801476083800445],[-122.39572123251341,37.801464008725596],[-122.39544483411643,37.80117193087548],[-122.39543967026195,37.80115340376999],[-122.39545173073691,37.801135840446875],[-122.3975327029831,37.799965918084624],[-122.39760757560671,37.799897716950376],[-122.39764059740634,37.79984383648155],[-122.39701273653507,37.799136828970695],[-122.39674233993793,37.79883473217205],[-122.39670227425407,37.7988577085954],[-122.39667322315888,37.7988221964212],[-122.39661915440855,37.798847879468426],[-122.39659730536916,37.79884947149906],[-122.39657810688244,37.79883241095669],[-122.39571065893422,37.79933518414139],[-122.39568311378704,37.79940374188903],[-122.39557941328387,37.79946136119112],[-122.39548879491956,37.79946405841616],[-122.39447181528946,37.80005110994303],[-122.39448935579217,37.800064475577074],[-122.39446395663035,37.80011078855591],[-122.39449818431868,37.80014601539658],[-122.39443762718466,37.80018192988462],[-122.39433852875887,37.800158708225126],[-122.39425194626571,37.80007449262806],[-122.39424207502789,37.79999400747076],[-122.39430836397304,37.79995696325574],[-122.39434347652181,37.799984934688744],[-122.39440752562408,37.79998266517474],[-122.39442353463339,37.79999729604739],[-122.3954466706425,37.79940642391533],[-122.39546104785892,37.7993457450861],[-122.3955656029818,37.79928788888109],[-122.39560620750343,37.799285995558186],[-122.39565456326821,37.79928149618986],[-122.39613864007487,37.79901193160529],[-122.39652347879598,37.798774977748096],[-122.39650887389058,37.798754121260096],[-122.39651370575895,37.79873613224489],[-122.39656243554448,37.79870859567425],[-122.39652865407156,37.79867481330322],[-122.39657494970496,37.7986476013747],[-122.39649790239203,37.798569437349244],[-122.39646552479637,37.79858732754156],[-122.39635936350142,37.79847117077782],[-122.39639639817773,37.79845196509345],[-122.39630968886851,37.798362790328326],[-122.3958613891581,37.79787143519077],[-122.39579514484323,37.79787817574795],[-122.39570528671564,37.797898373012096],[-122.39567820141941,37.797905616143126],[-122.39563991388368,37.79791814531035],[-122.39559743769973,37.797934631745],[-122.39555988080059,37.79795176866294],[-122.39553473862469,37.79796311395804],[-122.39384473917178,37.79893695819464],[-122.39383187783808,37.79894210334203],[-122.39382330810702,37.798942484101275],[-122.39381838897894,37.79894183370248],[-122.39381158853803,37.79893951158825],[-122.39380398984635,37.798934592529086],[-122.39355562237361,37.79865866689939],[-122.39355364635891,37.79865335076658],[-122.39355220430079,37.79864486428107],[-122.39355365513676,37.79864168026063],[-122.3935595886334,37.798634047697576],[-122.39356439741533,37.7986297466892],[-122.39529980952167,37.79763665619951],[-122.39545402339787,37.797552261288985],[-122.39549284431125,37.79746731153248],[-122.39542113301711,37.79739377585939],[-122.39530273640241,37.797394474256976],[-122.39513380847963,37.79749717532373],[-122.39499772820069,37.79734034811095],[-122.39517876509343,37.79723624803698],[-122.39520244218333,37.79715274652032],[-122.39517284114896,37.79712310596456],[-122.39501498966371,37.79712443816981],[-122.39484448328955,37.797224754844336],[-122.39487647490496,37.797258074026345],[-122.39321077984272,37.79824895164869],[-122.39320524904157,37.79825092450093],[-122.39319493812621,37.79825235316622],[-122.39318694167687,37.7982509025008],[-122.3931795446893,37.798247633571584],[-122.39292058334782,37.79797456788046],[-122.39291866228082,37.797968154385295],[-122.392918866885,37.79796057214977],[-122.39291993157272,37.79795550236643],[-122.39292533185328,37.79794878411987],[-122.39316860052831,37.79750756854558],[-122.39309152686631,37.797425913833514],[-122.39346864071118,37.79720784448618],[-122.39349114351775,37.797233304620036],[-122.39412709656568,37.7968632360998],[-122.39393196855339,37.796648912696945],[-122.39385049609292,37.79668794087396],[-122.39374248692954,37.796574617987005],[-122.39388081635263,37.79650708319792],[-122.39359825902855,37.796198218971455],[-122.39352364290828,37.7962371368298],[-122.3933972815255,37.796098413261795],[-122.39348204712117,37.796057180880375],[-122.39326365974041,37.795831331853364],[-122.39319922396838,37.795862871190195],[-122.39301382932162,37.795654718878524],[-122.39305542431303,37.79562822966094],[-122.39299771707304,37.79556080501007],[-122.39159068873639,37.79620661141311],[-122.39119510533874,37.79577623962134],[-122.39241008795254,37.79481885634825],[-122.39226746576526,37.79467117778397],[-122.39194030446512,37.79485374214974],[-122.39164943953445,37.794547237596454],[-122.391828340166,37.79444553187769],[-122.39180178654465,37.79441758291664],[-122.39194558007526,37.79433551605247],[-122.39186138812263,37.79424680970543],[-122.39236350694578,37.79396497211862],[-122.40202275803547,37.7863777696271],[-122.40217133081705,37.786260131123804],[-122.40354369743356,37.787362054065646],[-122.40358352730978,37.787766472741716],[-122.40461322384239,37.78695280338044],[-122.40473963659169,37.78685305966766],[-122.40495366230131,37.78668418536691],[-122.40598564066063,37.78586851440738],[-122.40620964698807,37.785695934131525],[-122.40635020443172,37.785587644489596],[-122.40750141517016,37.78467735650787],[-122.40768318194877,37.78453392307989],[-122.4077395957084,37.78447484711388],[-122.40794242767085,37.78547259955218],[-122.4083093101976,37.787250984294005],[-122.40832313112226,37.78724883985103],[-122.40973821034696,37.787067722747075],[-122.40985472231756,37.78705378078731],[-122.40997427779416,37.78704076423065],[-122.41137740847026,37.7868605979213],[-122.41161274959197,37.7868330837296],[-122.41227394020838,37.78674900816278],[-122.41236112334549,37.786738565991236],[-122.41302585117582,37.78665386448312],[-122.41326255423236,37.78662406775762],[-122.41467506057542,37.78644648536067],[-122.41478889151296,37.7864320277272],[-122.41490636598826,37.78641108664812],[-122.41631092550081,37.7862340031633],[-122.41654346759918,37.78620481822339],[-122.41794938068563,37.78602329574605],[-122.41817092080751,37.78599589755623],[-122.41846504123671,37.78748288814589],[-122.41875858981561,37.78890163973278],[-122.41910921257337,37.790784432880955],[-122.41947142813697,37.79259192517469],[-122.4198456984415,37.794341992560696],[-122.42022007884458,37.796095633392284],[-122.4206080195738,37.7980243101724],[-122.42099937615609,37.79991000929406],[-122.42136013707363,37.80183197224212],[-122.42172622692947,37.80361077901028],[-122.42188417575782,37.80446149022492],[-122.42192391561828,37.80445599627475],[-122.42252214547472,37.80437909878227],[-122.42332879726312,37.80427679334079],[-122.42356343458843,37.80424757472114],[-122.4248770262546,37.804079806455555],[-122.42511061343953,37.80414615249672],[-122.42534200886219,37.804211876012744],[-122.42551187466053,37.80504933698597],[-122.42570120042114,37.80598277976385],[-122.42581176925785,37.8065129373631],[-122.42606364244871,37.806790619977384],[-122.42611315625649,37.80684520715125],[-122.42612039096105,37.806838540010546]]]]},"properties":{"shape_area":"55950268.8396","shape_leng":"64025.1290733","company":"A","_feature_id":"6","shape_le_1":"67686.5228649","district":"CENTRAL"}},{"type":"Feature","geometry":{"type":"MultiPolygon","coordinates":[[[[-122.40953917435229,37.769317718404],[-122.40862408729271,37.769305152537406],[-122.40833604069962,37.76938733707316],[-122.40801677576155,37.769404857864934],[-122.40767193227727,37.76935957797128],[-122.40715893530246,37.76939067843472],[-122.4068249097796,37.7694120776074],[-122.40668202120337,37.76942039768808],[-122.40664968129471,37.76942435455761],[-122.40660912052442,37.76943101936348],[-122.40656250773728,37.76944064357556],[-122.40652418230958,37.76945013373098],[-122.40648125333887,37.769462845717435],[-122.40644438282625,37.76947671545947],[-122.40636744772374,37.769736860041505],[-122.40595262088095,37.76976332754041],[-122.4051323271789,37.769814604639535],[-122.40512185230712,37.76970685545086],[-122.40511105589576,37.769595591895666],[-122.40509637093236,37.769448896536446],[-122.40508044411874,37.769282982676415],[-122.40501488276273,37.768613919402554],[-122.40500829425963,37.768515772986284],[-122.40500270102449,37.76843245311713],[-122.40489484486613,37.76733824124103],[-122.40488753123131,37.76725840648307],[-122.40487811820275,37.76715565325444],[-122.40477027485521,37.76605976723423],[-122.4046200079582,37.76476248759323],[-122.40448169670127,37.76346816561328],[-122.40447981499636,37.763447980011605],[-122.40513384584109,37.763410682628354],[-122.40640815769314,37.76334134655185],[-122.40628965388117,37.762059224025045],[-122.40619078570582,37.76135531369125],[-122.40639048464928,37.76067549543909],[-122.40637857907542,37.760272240470464],[-122.40626054506087,37.759842263836],[-122.40614410439149,37.75943338187529],[-122.40582966289486,37.758996219653184],[-122.40546304242213,37.75859332029054],[-122.40404442440793,37.75754445697361],[-122.40367883964767,37.757181313290445],[-122.40345322008795,37.756849056176854],[-122.40328239843238,37.75648276561703],[-122.40317607278433,37.756107758314684],[-122.40302896605787,37.75448352716166],[-122.40288449229497,37.75278890342114],[-122.402975121807,37.7518718011513],[-122.40310088572846,37.751271266700435],[-122.40317521964036,37.751007773717184],[-122.40368870497257,37.74939165513786],[-122.40406681825937,37.74823894740468],[-122.40449818754264,37.74858097286839],[-122.40492344207905,37.7487696267328],[-122.40534003943661,37.74888172790775],[-122.40558772785646,37.74891461201384],[-122.405817951769,37.7488683844079],[-122.40617192072436,37.748796325935935],[-122.40630507389369,37.748766094398036],[-122.4064166585014,37.7487393704615],[-122.40662960305409,37.74866643310432],[-122.40669403823294,37.74864538525212],[-122.40675666996437,37.748622962758084],[-122.40693105766447,37.74856328366062],[-122.40747700431021,37.74837650599217],[-122.40776025206841,37.74825294178416],[-122.40802095472431,37.748232576290974],[-122.40825766341793,37.74822453191667],[-122.40854260253566,37.7482185135275],[-122.40869203291325,37.748216526666695],[-122.40883416019679,37.74821203633819],[-122.40952728881038,37.74819729718915],[-122.40963335323114,37.7481966315335],[-122.40973536899344,37.74819322346782],[-122.41053156635193,37.748176515340646],[-122.41147233388143,37.74816125936003],[-122.41161339966175,37.74815680697866],[-122.41257779652868,37.74813729821785],[-122.41334379665366,37.74812215519037],[-122.41351920916568,37.748117803696424],[-122.41365510703784,37.74811619676199],[-122.41380503114486,37.748111758411035],[-122.41480476350644,37.74809130646395],[-122.41490640044425,37.74809035692204],[-122.41500267215137,37.74808703762966],[-122.41585050690927,37.74806927700151],[-122.41815132230185,37.74802225320176],[-122.41831613293732,37.74802025588102],[-122.41854038749153,37.74801386362941],[-122.41916109895068,37.74800126199603],[-122.42009018620493,37.747982478582564],[-122.42026531564768,37.74797857750695],[-122.42042251525501,37.747975141005284],[-122.42124320602228,37.747958177691636],[-122.4213764742121,37.74795428200356],[-122.42148110553411,37.74794538895795],[-122.42224038918302,37.74790079315618],[-122.42247390322558,37.74788533229181],[-122.42262640413364,37.74787461968045],[-122.42455184432684,37.74776147546682],[-122.42475659196288,37.747748172676744],[-122.4249653330486,37.74773119821146],[-122.42689190065295,37.74761819518554],[-122.42703706537361,37.747606556925795],[-122.42717572474481,37.7475946940121],[-122.42911923740228,37.74748338959207],[-122.42926087027926,37.74747572700211],[-122.4294036174593,37.74746571167374],[-122.43109738781234,37.74736794595213],[-122.43133807574571,37.747353975564195],[-122.4314696287236,37.74734145121403],[-122.43162084623829,37.7473252103114],[-122.4319166854886,37.74730807931034],[-122.43354874411028,37.74721134708317],[-122.4336892163773,37.74720287350205],[-122.4338331396746,37.74719434329546],[-122.43576620733691,37.74708035884109],[-122.4359066791081,37.7470718827925],[-122.43628759763482,37.74704917527016],[-122.43656598844441,37.74703363445408],[-122.43797676066335,37.746949442561196],[-122.43791598631142,37.74632558347117],[-122.43790126099994,37.74616162116748],[-122.43784035888552,37.745525403282976],[-122.43781939239966,37.7453502900079],[-122.4380260962445,37.7453331829929],[-122.43884513752096,37.74528336009941],[-122.43983235589148,37.74522395789106],[-122.44008831907132,37.74529595690068],[-122.44020117949043,37.74537991547451],[-122.44029099072779,37.74541587563477],[-122.44030750104606,37.74547292196461],[-122.44031919030577,37.745521102048556],[-122.44032946198449,37.7455789135308],[-122.44033769182042,37.74563841541291],[-122.44034338256269,37.74571253714854],[-122.44034277911292,37.745807087260665],[-122.44033595786185,37.74589157140853],[-122.4403034590311,37.74619691954717],[-122.44029494357606,37.74627028101869],[-122.44027192579564,37.746491318137586],[-122.44027205824904,37.746544326926774],[-122.44027570414988,37.746572097769096],[-122.44028172079263,37.74661076284445],[-122.44029240314975,37.746652333088505],[-122.44030277395808,37.74668198101968],[-122.44031299797336,37.74670599894929],[-122.44032142384931,37.74672507667452],[-122.44034902240404,37.74677531399987],[-122.44039878437978,37.746843408835886],[-122.44042755824144,37.74687474154282],[-122.440454977082,37.74690212091782],[-122.44049677547444,37.746936883733724],[-122.4405291475112,37.7469621933562],[-122.44054994704778,37.746975766275945],[-122.44058772381908,37.74700032444898],[-122.44061144283977,37.747013849104526],[-122.44065624065017,37.74703564103138],[-122.44070940568366,37.74705828914],[-122.44078011351661,37.74708164212638],[-122.44085105711159,37.74709803355723],[-122.4408841699831,37.74710378337929],[-122.44091647936493,37.74710854891257],[-122.44095071773255,37.74711163291734],[-122.44099251138158,37.74711425755968],[-122.44102506890194,37.747114715286955],[-122.441070937907,37.747113628526584],[-122.44111758066663,37.74711020961646],[-122.44116249465155,37.74710449995519],[-122.44120070075687,37.747097575563544],[-122.44125296612835,37.74708578113342],[-122.44128278747938,37.74707733806141],[-122.4413754756472,37.74704764918103],[-122.44174581971443,37.74692923016169],[-122.44217905472232,37.74679055714347],[-122.44238884642068,37.746723486229186],[-122.44274428519917,37.74660961690739],[-122.44306827708917,37.74650587344178],[-122.44315518556384,37.74647859747295],[-122.44320825852157,37.74646579484709],[-122.44324853213436,37.74645817308176],[-122.44355922085259,37.746452055221496],[-122.44360236921518,37.74645863258322],[-122.44366193071323,37.74647057163183],[-122.44369132463062,37.74647770704371],[-122.443703106369,37.746481488527486],[-122.44376622087866,37.7465016519443],[-122.44380327807413,37.74651462473599],[-122.44382308825472,37.74652224959309],[-122.44383913601011,37.74652960511927],[-122.4438530810953,37.746536332897335],[-122.4438679038169,37.746544702625755],[-122.44389378684374,37.74656117292676],[-122.44390796182637,37.746572168602036],[-122.44392861884516,37.74658478462424],[-122.44393873241955,37.746588593603725],[-122.44394755141646,37.7465907673331],[-122.44395510205116,37.74659229937875],[-122.44396347811629,37.74659348641565],[-122.4444022503438,37.74658691010175],[-122.44476303642628,37.74658151127584],[-122.44478299504671,37.74677009204168],[-122.44484735063232,37.74694572149153],[-122.44486832308513,37.74710282670451],[-122.44474740224685,37.74714266144182],[-122.44469821192799,37.74715634967382],[-122.44465177275163,37.74717189978696],[-122.44459417072466,37.74719693396885],[-122.44458072084748,37.74720382242061],[-122.44452728142299,37.74723428211867],[-122.44446800839053,37.74727579664432],[-122.44442046068117,37.747317833015096],[-122.44437902212061,37.747363822263054],[-122.4443448186781,37.74741088442357],[-122.44432678845126,37.74744266743253],[-122.44430534799285,37.74748617044892],[-122.44428590171064,37.74754634232933],[-122.44427750077196,37.74758105621573],[-122.44427295776164,37.74762548275656],[-122.44427121124261,37.747650548933414],[-122.44427343492792,37.74768961800168],[-122.44428766121813,37.74778571706387],[-122.44430912899567,37.7478831273404],[-122.44436551867611,37.74813304626127],[-122.44437246928864,37.74818062168541],[-122.44437589364595,37.748219670938646],[-122.44437742967054,37.7482554131748],[-122.44437565035983,37.74830217872513],[-122.44436708439476,37.74837647787051],[-122.44435306593819,37.748437513931286],[-122.4443387358143,37.74848663260549],[-122.44431393662295,37.748547288004474],[-122.44428908743147,37.74859761571442],[-122.44426955517638,37.74863155933234],[-122.44423546958195,37.7486831499748],[-122.44419681276884,37.74873219319744],[-122.4441161902633,37.74884154101438],[-122.44392190927239,37.74910608725995],[-122.44376009294047,37.74932598414468],[-122.44366399621535,37.74953263612073],[-122.4435967643202,37.74968609661368],[-122.44351305737165,37.75010237990843],[-122.44303150209508,37.75209137953133],[-122.44298873037364,37.75235884178886],[-122.44295139634951,37.75245037481475],[-122.44295848564498,37.75248030252375],[-122.44296628044567,37.75252571802765],[-122.44296931574519,37.75257288090955],[-122.4429618595194,37.752735626600675],[-122.44294742697006,37.752789920823204],[-122.44293320176567,37.75283410182829],[-122.44291102727071,37.752881918894225],[-122.44288565793794,37.75292239676226],[-122.44286478588076,37.75295111635981],[-122.44280818847723,37.75301476175052],[-122.44278487665925,37.75305353641456],[-122.44277260412241,37.753078060535614],[-122.44272741687351,37.75321638733759],[-122.44265148853759,37.75351117410222],[-122.4426429792474,37.75355328163726],[-122.44262140909463,37.753624218173776],[-122.4426078101047,37.75365544082843],[-122.44256124072383,37.75374658093022],[-122.44254986354726,37.753759406319396],[-122.44254201365798,37.753769312002795],[-122.44245827948843,37.753897785908094],[-122.44241758606042,37.75394948482965],[-122.44207700452073,37.75439694487684],[-122.44201291666917,37.75448431972429],[-122.44198461273402,37.75452746854907],[-122.44195906659688,37.754572718140345],[-122.44192735230664,37.75463476055524],[-122.44191117336831,37.75467299327165],[-122.44189521202102,37.75469831380775],[-122.44188583781636,37.754726777476506],[-122.44179884444422,37.75499216787108],[-122.44176602125084,37.75506925096329],[-122.44174918169291,37.75510291149936],[-122.44171131859392,37.755171016491964],[-122.4416592999951,37.755260576699364],[-122.4416467962427,37.7552762819393],[-122.44164192351002,37.75528518494543],[-122.44163944597993,37.75529380992427],[-122.44163674908174,37.755305538294685],[-122.44163694841734,37.75531316543493],[-122.4416242991291,37.75534627978306],[-122.44160869152749,37.75538111212656],[-122.44159296533921,37.75541141595017],[-122.44157111560642,37.755448735554616],[-122.44150984152574,37.75552891026541],[-122.44146976061955,37.75556962996201],[-122.44144925750783,37.75558952064573],[-122.44132503078056,37.75588104472785],[-122.44127602422097,37.75609741022291],[-122.44132140606078,37.75620164249758],[-122.44135566230507,37.7562793002942],[-122.44135933474755,37.756285843703246],[-122.4413856006443,37.756302579533305],[-122.44142111690348,37.75631701676197],[-122.44145165539314,37.75632485946984],[-122.44145669016442,37.75632215353492],[-122.44223379238463,37.756545891519494],[-122.44227269099581,37.75657481825613],[-122.44231215895857,37.75660254329404],[-122.44237815693657,37.75663412316249],[-122.44244917142636,37.756675711644384],[-122.44248918032102,37.756703431225226],[-122.44252641073628,37.75673325929743],[-122.44255161965134,37.75675549650268],[-122.44258367605453,37.756786920345924],[-122.44262516848146,37.75683246745363],[-122.44264848172406,37.75686477886851],[-122.4427053671467,37.75694642991037],[-122.44275475441599,37.75700085099493],[-122.4428754874364,37.7571385921245],[-122.44301079705747,37.75730542221615],[-122.4430381003193,37.757338831950925],[-122.44319486456698,37.757487662848014],[-122.44325462597561,37.75754485916021],[-122.44345011235986,37.757761724730884],[-122.44368687541944,37.757937611283836],[-122.44399563015092,37.758075588686225],[-122.44427605412206,37.75820974058206],[-122.44455767254388,37.758263276133306],[-122.44459044276158,37.7582716457294],[-122.44467217769605,37.75846120754997],[-122.4448639944988,37.75860139343394],[-122.4448652070929,37.7586642814065],[-122.44491886619376,37.75872920802336],[-122.44497322467546,37.75880938375009],[-122.44500870800981,37.75887547733733],[-122.44502291040288,37.758906089720995],[-122.44504676742189,37.75896840814458],[-122.4450613123189,37.75901919647883],[-122.44508041619011,37.7591137772662],[-122.44508456114544,37.75915715005287],[-122.44508677488861,37.75919990318067],[-122.4450854791359,37.75924445187436],[-122.4450806615727,37.75930078781069],[-122.44507455188318,37.75933911688847],[-122.44506612319677,37.759382914473],[-122.44503531854299,37.75947073980974],[-122.44502618917595,37.759508684304684],[-122.44501604054928,37.75953904349893],[-122.4449831802156,37.75961104662044],[-122.44496455956997,37.759641762735434],[-122.44494559734359,37.75966987818847],[-122.4449180204832,37.75970334856206],[-122.44488528734813,37.7597384245446],[-122.4448558934084,37.75976519141536],[-122.44481436369854,37.75979867488391],[-122.44472047410191,37.75985952141466],[-122.44456551800076,37.75996003823326],[-122.44438822694359,37.76007482430819],[-122.44423540089043,37.76017313329975],[-122.44403090846923,37.760304440933865],[-122.44350624242708,37.76064216096886],[-122.44304454987261,37.76091048354954],[-122.44282442662133,37.76103810589167],[-122.4426485900978,37.76111349281085],[-122.44250322845681,37.761159763287104],[-122.44235611998823,37.76117513862993],[-122.44224850939105,37.76117463144765],[-122.44179299602506,37.761175403430606],[-122.4409941514067,37.761177266965326],[-122.44090635430433,37.76117827838046],[-122.44054056946783,37.7611786540059],[-122.44017577246574,37.76120638014695],[-122.44007612993883,37.761256674583436],[-122.43997731326199,37.76130717245769],[-122.4398472267624,37.76137556135231],[-122.43970302347648,37.761444190157185],[-122.43962313920896,37.761479815550274],[-122.4395265169063,37.761520068171855],[-122.43942649941388,37.76155603264307],[-122.43932513132975,37.7615926707791],[-122.4391756119175,37.76164337845859],[-122.4391173704719,37.761662119575035],[-122.43909647695337,37.761668762366156],[-122.43897645540206,37.76170353484964],[-122.4387973496215,37.761749270756475],[-122.4387053957606,37.76176924586799],[-122.43859083350372,37.761793068053],[-122.43847670503607,37.761812538704284],[-122.43837400594117,37.76182964939969],[-122.4382718650851,37.76184718523574],[-122.43741909707869,37.7619952217361],[-122.43730648290726,37.76201331582789],[-122.43720058218605,37.76203009117169],[-122.43688690396255,37.76208781002761],[-122.4366007050574,37.76213964649127],[-122.43652946664032,37.76215667305057],[-122.43646973674109,37.76217437913272],[-122.43640817746194,37.7621953734084],[-122.43635511310755,37.76221687979619],[-122.43602898549695,37.7625213294405],[-122.43577845187285,37.762629486019094],[-122.43553928516423,37.76273289381308],[-122.4353382544141,37.76281938479201],[-122.4352029934345,37.76285744446948],[-122.43508552019256,37.76289767856978],[-122.43503432362688,37.762915213131706],[-122.43495159273715,37.762980928435816],[-122.4335373673942,37.764099610986506],[-122.43344322839779,37.76417903090086],[-122.43325243994278,37.764337346107325],[-122.43298457222112,37.76453678991297],[-122.43127026390157,37.7658874318197],[-122.43118729363879,37.7660730217064],[-122.43091190956157,37.76617608893965],[-122.42958587024307,37.76722193799079],[-122.42910883915928,37.76759825191396],[-122.42882509908132,37.76782465092833],[-122.42772053882895,37.76869971563096],[-122.42756969358686,37.7688190124006],[-122.426703909892,37.76950394380246],[-122.42668345433675,37.76953366732178],[-122.4264025290646,37.769744224253024],[-122.42577536822422,37.76977327950639],[-122.42473289250815,37.76983517244073],[-122.42444972947551,37.76985282125173],[-122.42390115454043,37.76988528482227],[-122.42376301614713,37.769894429743886],[-122.42322441690412,37.769926745810885],[-122.42308799916742,37.76993422215192],[-122.42251750758606,37.76996825284473],[-122.42237731686286,37.76997702438399],[-122.42223304284072,37.76998586234241],[-122.42165286338161,37.770020452043426],[-122.42153253594512,37.77002727750647],[-122.42053176152821,37.77008736183244],[-122.4203047012802,37.7701133538534],[-122.41970108947118,37.77034773540687],[-122.4179461645983,37.77009257495512],[-122.41769981854017,37.77005175391205],[-122.41754574218,37.770026739021915],[-122.4156691161667,37.769774031250535],[-122.41537097457507,37.76973077015224],[-122.4148487177353,37.76971541587498],[-122.41466096522562,37.76971137254609],[-122.41417934486842,37.76969690160976],[-122.41397240062379,37.76969114218143],[-122.41344481896164,37.76967640118643],[-122.41329989648816,37.76967159364134],[-122.41303280538604,37.769663328975334],[-122.41295448342176,37.769662423074344],[-122.41157526492653,37.76962313576749],[-122.4109365295232,37.76955496069935],[-122.41005673623837,37.76944047907187],[-122.40953917435229,37.769317718404]]]]},"properties":{"shape_area":"80623839.7922","shape_leng":"40152.783389","company":"D","_feature_id":"3","shape_le_1":"40518.8342346","district":"MISSION"}},{"type":"Feature","geometry":{"type":"MultiPolygon","coordinates":[[[[-122.43379217152915,37.80793010706978],[-122.43374633159719,37.80784336817977],[-122.43571965781052,37.80756808689714],[-122.43556510857016,37.80684066927795],[-122.43424350310997,37.80703907773095],[-122.43414529882936,37.8069869021597],[-122.43383903725629,37.80563958871949],[-122.43366379354192,37.805604043395995],[-122.43337358783631,37.80561648504712],[-122.43268869366675,37.80571991562683],[-122.4325664496053,37.805860225923446],[-122.43236788060497,37.8059467684226],[-122.4320383607247,37.805571616924055],[-122.43160986667122,37.803418256602846],[-122.42534200886219,37.804211876012744],[-122.42511061343953,37.80414615249672],[-122.4248770262546,37.804079806455555],[-122.42356343458843,37.80424757472114],[-122.42332879726312,37.80427679334079],[-122.42252214547472,37.80437909878227],[-122.42192391561828,37.80445599627475],[-122.42188417575782,37.80446149022492],[-122.42172622692947,37.80361077901028],[-122.42136013707363,37.80183197224212],[-122.42099937615609,37.79991000929406],[-122.4206080195738,37.7980243101724],[-122.42022007884458,37.796095633392284],[-122.4198456984415,37.794341992560696],[-122.41947142813697,37.79259192517469],[-122.41910921257337,37.790784432880955],[-122.41875858981561,37.78890163973278],[-122.41846504123671,37.78748288814589],[-122.41817092080751,37.78599589755623],[-122.41817037852678,37.78599322760697],[-122.41960519320148,37.78581213460027],[-122.41914951825424,37.783584110839605],[-122.41865826782484,37.78116006787734],[-122.41722373354555,37.78134600602457],[-122.41667827770488,37.77864604451411],[-122.41652756390242,37.777797406392196],[-122.41655639259652,37.777522600559244],[-122.41759179799604,37.77670518566981],[-122.4179298110711,37.77643800955909],[-122.41885431115136,37.77570665467286],[-122.41906140697911,37.7755434173265],[-122.41912733566205,37.77549099238318],[-122.41920058186328,37.77543274859021],[-122.4192223972854,37.77541540141245],[-122.41931375899185,37.77534275225832],[-122.41963158638178,37.775093502586365],[-122.42046730936187,37.77443290737442],[-122.42085643120741,37.774125724827066],[-122.42095266309961,37.77404988520355],[-122.42126488116594,37.77380272240494],[-122.42141460128104,37.773684816881094],[-122.42191730134238,37.773286912121705],[-122.42204200784424,37.773190059668],[-122.42231045768273,37.77297607447335],[-122.42255421425668,37.77278319196615],[-122.4233598666991,37.77214758249625],[-122.42376101914435,37.771829202006714],[-122.4238144711915,37.77208782140508],[-122.42545746849015,37.77187182194974],[-122.42541567576251,37.77167919182802],[-122.42527182875511,37.77094583740112],[-122.42668401934435,37.77076808467217],[-122.42683778312595,37.77150773262562],[-122.42684041006945,37.77150739568776],[-122.42687545741565,37.7716922773979],[-122.42710299491688,37.77166330661888],[-122.43203925503768,37.77103469299497],[-122.43678276699235,37.77044322852459],[-122.4369843160705,37.77041795736096],[-122.43825568386843,37.77676909461202],[-122.43831648135631,37.77692944335758],[-122.43955630942153,37.7831382837805],[-122.43957142847782,37.78321399082059],[-122.43999086571687,37.785132389829045],[-122.44060303315374,37.78815060722025],[-122.44126871380196,37.79148984438553],[-122.44163812562971,37.79330701364296],[-122.44305061095592,37.79312803298132],[-122.44316947086782,37.79311248929543],[-122.44328854456872,37.79309729462624],[-122.44470324940391,37.79291746176932],[-122.44493800000713,37.79288798331415],[-122.44628188978848,37.792717465829114],[-122.44655128235742,37.79269725622096],[-122.44655898272353,37.7926966785366],[-122.4467141607415,37.79374428848308],[-122.44714849291321,37.796556766460725],[-122.44743019198822,37.798417970649076],[-122.44758301428459,37.79937520000161],[-122.44788742604413,37.80135295573499],[-122.44808601032287,37.8013735448861],[-122.44826110889193,37.80140403493129],[-122.44839402867146,37.80143045259552],[-122.44856975325706,37.80148477669408],[-122.44872732969498,37.80153463142362],[-122.44885499286352,37.80158974929537],[-122.44896500874898,37.801659465525105],[-122.44909930579104,37.80173831835366],[-122.44923410371342,37.80183623842486],[-122.44934462072708,37.8019250218732],[-122.44945563866285,37.80203287278733],[-122.4495799242649,37.80218819379242],[-122.44968631231129,37.802348579572026],[-122.44976917020163,37.80252843013943],[-122.44982787232857,37.802703911208326],[-122.44985691117796,37.80289418936775],[-122.44985503462645,37.80305159598787],[-122.44984176845422,37.803233035767065],[-122.44980384484609,37.80339103853916],[-122.44975352966748,37.80353493914775],[-122.44966804339735,37.80371280386878],[-122.44955777409065,37.80386246453819],[-122.44945301163024,37.80399295822314],[-122.44931820917031,37.804123948345186],[-122.44911974155713,37.804281147574244],[-122.44901580701195,37.80434296146363],[-122.44886895570981,37.80442184450954],[-122.4487222911367,37.80448194110038],[-122.44853016624012,37.804556639404126],[-122.44839841191673,37.8045923650218],[-122.44832081166973,37.80499221094246],[-122.44849865765345,37.80608504641575],[-122.44872865377009,37.8067018266047],[-122.44856330464005,37.8067570171247],[-122.44834963999116,37.80680346778143],[-122.44831381022607,37.80681240540194],[-122.4482363611689,37.80683872177962],[-122.44816660999346,37.80687206453432],[-122.44784213569453,37.807047914110676],[-122.44718169580996,37.80747729560774],[-122.44663796180431,37.80752487903498],[-122.44647645255792,37.80751635859369],[-122.4452561586028,37.8076271023973],[-122.44483204964222,37.80761382892138],[-122.44479127586088,37.8076061555878],[-122.4436957731378,37.80771959431004],[-122.44271359676254,37.807971839919894],[-122.44263326543464,37.808002969030895],[-122.44252561595536,37.80802381793437],[-122.44155752949382,37.80812559995221],[-122.44094630847692,37.808197656903594],[-122.44066450579473,37.8082821741058],[-122.44058000952693,37.808326484834915],[-122.44052086148027,37.80836322521322],[-122.44044872411473,37.80842044717601],[-122.44038140453777,37.80848951221636],[-122.44022529249405,37.80866853140153],[-122.4400327253193,37.8088326511209],[-122.43992768074182,37.80878072833732],[-122.44027382019483,37.80822541365165],[-122.44030915325858,37.808197410888276],[-122.4403490238432,37.80817052575328],[-122.44039073893751,37.80815672476214],[-122.44041295616358,37.80814923694962],[-122.44043339322943,37.80814353960963],[-122.4404576297757,37.80813890172369],[-122.44047265071704,37.808136410464584],[-122.44047096759398,37.80814416818742],[-122.4406283831542,37.80810750970235],[-122.44077990441745,37.808097862992796],[-122.44230835830498,37.80793320942374],[-122.44237260392717,37.80791903684487],[-122.44241973435727,37.80788249344237],[-122.44245256652505,37.80781637961475],[-122.44241043164517,37.80764181487423],[-122.44268421576837,37.807595577098205],[-122.44271182965524,37.807789456745596],[-122.44276048795533,37.807811307721494],[-122.44280091858772,37.8078058728953],[-122.44290578174505,37.80779341533002],[-122.44299844117388,37.80777400514596],[-122.4430775526463,37.80774911189996],[-122.4431238964146,37.80774451691957],[-122.44320751224078,37.80772406345275],[-122.44325805190327,37.80770296263176],[-122.44329247416779,37.807697626459046],[-122.4434301014536,37.80767389845127],[-122.44367389371855,37.80759476944617],[-122.443655235386,37.80749135275926],[-122.44365645670177,37.80748060252529],[-122.44366988149625,37.8074768045768],[-122.44387028203495,37.80744011909564],[-122.44389275049626,37.80743736435445],[-122.44417538892732,37.80738501585923],[-122.44432775494008,37.80735031371457],[-122.44446567249398,37.80730718902598],[-122.44448382839235,37.80730151205922],[-122.44525512568627,37.80707153687443],[-122.44527665529466,37.80706466915588],[-122.44574420270047,37.806926361614074],[-122.44575697137962,37.80689753731995],[-122.44638185609487,37.806716736058284],[-122.44647014411257,37.80668794849485],[-122.4465861346025,37.80665613708392],[-122.44673386691748,37.80661673926546],[-122.44702501230321,37.80654516760685],[-122.44701606627265,37.80643324495983],[-122.44699328978116,37.80630962822683],[-122.44698706285652,37.806301385321724],[-122.44682396583033,37.80546831881266],[-122.44680894595565,37.80546856675508],[-122.44678786562102,37.8054013368829],[-122.44251472355025,37.80595069272655],[-122.44242369901183,37.80605678759752],[-122.44252188274243,37.80650702842335],[-122.44258536804362,37.80657870907226],[-122.44349604390428,37.806465941929595],[-122.4435411672297,37.806467582908745],[-122.44367178109128,37.80646304578409],[-122.44384845870951,37.806438673658526],[-122.44386210172897,37.806443217786146],[-122.44400745520244,37.806427707235244],[-122.44401865573778,37.80645375182435],[-122.44385693626673,37.806475493251476],[-122.44386059550975,37.80650047003503],[-122.44366173057645,37.80653832235726],[-122.44362887315054,37.806546017268985],[-122.4435795556926,37.80655636801824],[-122.44355546081881,37.806554380687665],[-122.44292025335473,37.80662803553774],[-122.44289791007618,37.80663555702994],[-122.44288296542675,37.80664326903415],[-122.442866866503,37.80665514424437],[-122.44261386504019,37.806691502198916],[-122.4425399268492,37.80671750399587],[-122.44251591200099,37.80674119513187],[-122.442505158552,37.80675307700394],[-122.44226513459681,37.80677973239143],[-122.44226386315812,37.806774726258475],[-122.44225195329041,37.80677964796876],[-122.44223499564163,37.80678053041478],[-122.44214552013565,37.80678502014847],[-122.4421314699173,37.806790479888164],[-122.44211791067066,37.80679532801121],[-122.44210521721783,37.80679935775477],[-122.44209892835258,37.80680117046724],[-122.44209125161149,37.806803207151916],[-122.44208042912678,37.80680610010968],[-122.44206783321395,37.806809022093844],[-122.4420510627164,37.806812214112945],[-122.44202910389193,37.80681569250676],[-122.44200736689578,37.80681796071125],[-122.441997629173,37.80681872423567],[-122.4419824447184,37.806819577622775],[-122.44196522053775,37.806819961799356],[-122.44195317919853,37.806819858396445],[-122.44192564482164,37.80681850206567],[-122.44190539055661,37.80682416431583],[-122.44188838769509,37.80682816425813],[-122.44187754942386,37.80683045410297],[-122.44186178694494,37.80683342837948],[-122.44183780130402,37.80683694010945],[-122.4418209966123,37.80683882539154],[-122.44180126515518,37.80684025624051],[-122.44178658219155,37.806840900227286],[-122.44177353281721,37.80684101452098],[-122.44176795676101,37.80684100576905],[-122.44175097259036,37.8068408833434],[-122.44173155833384,37.806839895893674],[-122.44169933892988,37.80684836911051],[-122.44168913650206,37.80685074902841],[-122.441677667627,37.80685314979585],[-122.44166051943868,37.80685644836039],[-122.4416365445176,37.80686036210865],[-122.4416067349005,37.80686407023246],[-122.44157676442231,37.80686647390571],[-122.44155866677087,37.80686737519757],[-122.44144953795451,37.80688113629053],[-122.44143221597724,37.80688262797206],[-122.44137182156373,37.80688462756169],[-122.44130575888622,37.80688310082684],[-122.44127516665844,37.80690049548649],[-122.44124222286166,37.806895809557986],[-122.44119349297537,37.806917424014244],[-122.44110838159396,37.80692405307159],[-122.4410428016549,37.80692643951687],[-122.4409973690498,37.80693362197302],[-122.44091941233931,37.806937619519154],[-122.44090001246667,37.806946887129904],[-122.44077962174266,37.80695158309259],[-122.44067522532868,37.80695732265877],[-122.44054701997591,37.80696848095948],[-122.44046734051462,37.8069889957627],[-122.4403713357053,37.8069958035196],[-122.44013326532325,37.80701681237069],[-122.43989375751151,37.80705071382007],[-122.4396715682636,37.80708784898412],[-122.43953822755823,37.80711588134909],[-122.439408699286,37.80712977490094],[-122.43924055854701,37.807140281565914],[-122.43910336165986,37.807151686694716],[-122.43878940980657,37.807197970141274],[-122.43876643216973,37.80720126355356],[-122.43796133774201,37.80729754384136],[-122.43767483936047,37.807346992770235],[-122.4362450137574,37.807576639622255],[-122.43585458309563,37.80754282110181],[-122.43583882718373,37.80768138683012],[-122.433931032397,37.80794825272187],[-122.43379217152915,37.80793010706978]]]]},"properties":{"shape_area":"82781685.5603","shape_leng":"56493.858208","company":"E","_feature_id":"4","shape_le_1":"50608.3103205","district":"NORTHERN"}}]}